NORAD_CAT_ID,OBJECT_NAME,OBJECT_TYPE,EPOCH,MEAN_MOTION,ECCENTRICITY,INCLINATION,RA_OF_ASC_NODE,ARG_OF_PERICENTER,MEAN_ANOMALY,BSTAR,MEAN_MOTION_DOT,MEAN_MOTION_DDOT,TLE_LINE0,TLE_LINE1,TLE_LINE2,SEMIMAJOR_AXIS,PERIOD,APOGEE,PERIGEE,DECAYED
55657.0,STARLINK-5328,PAYLOAD,2024-06-20 13:36:47,14.98328013,0.0003024,70.0004,305.8158,272.0481,88.0332,4.6765e-07,-8.7e-07,0.0,0 STARLINK-5328,1 55657U 23021AF  24172.56722171 -.00000087  00000-0  46765-6 0  9993,2 55657  70.0004 305.8158 0003024 272.0481  88.0332 14.98328013 75346,6950.199,96.107,574.166,569.962,0.0
55657.0,STARLINK-5328,PAYLOAD,2024-06-20 18:25:12,14.98330044,0.0003018,70.0004,305.3107,272.0434,88.0379,1.3489e-05,6.8e-07,0.0,0 STARLINK-5328,1 55657U 23021AF  24172.76750000  .00000068  00000-0  13489-4 0  9990,2 55657  70.0004 305.3107 0003018 272.0434  88.0379 14.98330044 75074,6950.193,96.107,574.155,569.96,0.0
55657.0,STARLINK-5328,PAYLOAD,2024-06-21 13:38:48,14.98330051,0.0003101,70.0002,303.2905,271.8041,88.2762,8.5689e-05,9.3e-06,0.0,0 STARLINK-5328,1 55657U 23021AF  24173.56861890  .00000930  00000-0  85689-4 0  9998,2 55657  70.0002 303.2905 0003101 271.8041  88.2762 14.98330051 75491,6950.193,96.107,574.213,569.902,0.0
55657.0,STARLINK-5328,PAYLOAD,2024-06-21 18:27:12,14.98332898,0.0003102,70.0002,302.7855,271.8771,88.2033,0.00010199,1.124e-05,0.0,0 STARLINK-5328,1 55657U 23021AF  24173.76889654  .00001124  00000-0  10199-3 0  9997,2 55657  70.0002 302.7855 0003102 271.8771  88.2033 14.98332898 75223,6950.184,96.107,574.205,569.893,0.0
55657.0,STARLINK-5328,PAYLOAD,2024-06-22 13:40:49,14.98328803,0.0003108,70.0002,300.765,271.5138,88.5665,9.0812e-05,9.91e-06,0.0,0 STARLINK-5328,1 55657U 23021AF  24174.57001973  .00000991  00000-0  90812-4 0  9999,2 55657  70.0002 300.7650 0003108 271.5138  88.5665 14.98328803 75645,6950.197,96.107,574.222,569.901,0.0
55657.0,STARLINK-5328,PAYLOAD,2024-06-22 18:29:13,14.98330313,0.0003052,70.0003,300.2609,266.1248,93.9562,8.0898e-05,8.72e-06,0.0,0 STARLINK-5328,1 55657U 23021AF  24174.77029876  .00000872  00000-0  80898-4 0  9994,2 55657  70.0003 300.2609 0003052 266.1248  93.9562 14.98330313 75370,6950.192,96.107,574.178,569.936,0.0
55657.0,STARLINK-5328,PAYLOAD,2024-06-23 12:06:42,14.98331877,0.0003075,70.0003,298.4088,267.3563,92.7244,2.741e-05,2.34e-06,0.0,0 STARLINK-5328,1 55657U 23021AF  24175.50465855  .00000234  00000-0  27410-4 0  9990,2 55657  70.0003 298.4088 0003075 267.3563  92.7244 14.98331877 75782,6950.187,96.107,574.189,569.915,0.0
55657.0,STARLINK-5328,PAYLOAD,2024-06-23 18:31:14,14.98334181,0.0003039,70.0004,297.7355,267.3337,92.7475,5.3479e-05,5.45e-06,0.0,0 STARLINK-5328,1 55657U 23021AF  24175.77169607  .00000545  00000-0  53479-4 0  9994,2 55657  70.0004 297.7355 0003039 267.3337  92.7475 14.98334181 75520,6950.18,96.107,574.157,569.933,0.0
55657.0,STARLINK-5328,PAYLOAD,2024-06-24 13:44:51,14.98334433,0.0003036,70.0004,295.7156,268.8729,91.2082,9.8876e-05,1.087e-05,0.0,0 STARLINK-5328,1 55657U 23021AF  24176.57281316  .00001087  00000-0  98876-4 0  9997,2 55657  70.0004 295.7156 0003036 268.8729  91.2082 14.98334433 75949,6950.179,96.107,574.154,569.934,0.0
55657.0,STARLINK-5328,PAYLOAD,2024-06-24 18:33:15,14.98336522,0.000303,70.0005,295.2108,268.5315,91.5497,0.00011785,1.314e-05,0.0,0 STARLINK-5328,1 55657U 23021AF  24176.77309094  .00001314  00000-0  11785-3 0  9999,2 55657  70.0005 295.2108 0003030 268.5315  91.5497 14.98336522 75678,6950.173,96.107,574.144,569.932,0.0
55657.0,STARLINK-5328,PAYLOAD,2024-06-25 12:10:44,14.98330043,0.0002954,70.0006,293.3597,260.5947,99.4878,3.6436e-05,3.42e-06,0.0,0 STARLINK-5328,1 55657U 23021AF  24177.50745544  .00000342  00000-0  36436-4 0  9996,2 55657  70.0006 293.3597 0002954 260.5947  99.4878 14.98330043 75781,6950.193,96.107,574.111,570.005,0.0
55657.0,STARLINK-5328,PAYLOAD,2024-06-25 13:46:52,14.98330338,0.0002946,70.0006,293.1914,260.373,99.7096,3.9016e-05,3.73e-06,0.0,0 STARLINK-5328,1 55657U 23021AF  24177.57421513  .00000373  00000-0  39016-4 0  9991,2 55657  70.0006 293.1914 0002946 260.3730  99.7096 14.98330338 76098,6950.192,96.107,574.104,570.009,0.0
55657.0,STARLINK-5328,PAYLOAD,2024-06-25 16:59:08,14.98330218,0.0002955,70.0007,292.8549,261.1129,98.9696,3.4032e-05,3.13e-06,0.0,0 STARLINK-5328,1 55657U 23021AF  24177.70773529  .00000313  00000-0  34032-4 0  9990,2 55657  70.0007 292.8549 0002955 261.1129  98.9696 14.98330218 76117,6950.192,96.107,574.111,570.003,0.0
55657.0,STARLINK-5328,PAYLOAD,2024-06-26 10:36:36,14.98337271,0.0002996,70.0008,291.0047,256.5161,103.5665,4.3685e-05,4.28e-06,0.0,0 STARLINK-5328,1 55657U 23021AF  24178.44208844  .00000428  00000-0  43685-4 0  9996,2 55657  70.0008 291.0047 0002996 256.5161 103.5665 14.98337271 75924,6950.17,96.107,574.118,569.953,0.0
55657.0,STARLINK-5328,PAYLOAD,2024-06-27 13:50:54,14.98327377,0.0003347,69.9999,288.1416,271.9235,88.1541,1.6845e-05,1.08e-06,0.0,0 STARLINK-5328,1 55657U 23021AF  24179.57701549  .00000108  00000-0  16845-4 0  9994,2 55657  69.9999 288.1416 0003347 271.9235  88.1541 14.98327377 76097,6950.201,96.107,574.392,569.74,0.0
55657.0,STARLINK-5328,PAYLOAD,2024-06-27 17:03:10,14.98328103,0.0003351,69.9998,287.8047,272.0768,88.0007,2.3282e-05,1.85e-06,0.0,0 STARLINK-5328,1 55657U 23021AF  24179.71053500  .00000185  00000-0  23282-4 0  9995,2 55657  69.9998 287.8047 0003351 272.0768  88.0007 14.98328103 76410,6950.199,96.107,574.393,569.735,0.0
55657.0,STARLINK-5328,PAYLOAD,2024-06-28 13:52:54,14.98339591,0.0003413,69.9997,285.6155,272.759,87.3178,0.00015035,1.702e-05,0.0,0 STARLINK-5328,1 55657U 23021AF  24180.57840491  .00001702  00000-0  15035-3 0  9996,2 55657  69.9997 285.6155 0003413 272.7590  87.3178 14.98339591 76249,6950.163,96.106,574.4,569.656,0.0
55657.0,STARLINK-5328,PAYLOAD,2024-06-28 17:05:09,14.98345366,0.0003302,69.9998,285.2785,272.4941,87.584,0.0002189,2.521e-05,0.0,0 STARLINK-5328,1 55657U 23021AF  24180.71191945  .00002521  00000-0  21890-3 0  9991,2 55657  69.9998 285.2785 0003302 272.4941  87.5840 14.98345366 76569,6950.145,96.106,574.305,569.715,0.0
55657.0,STARLINK-5328,PAYLOAD,2024-06-29 05:54:15,14.98323616,0.0003767,69.9996,283.932,273.5555,86.5173,7.2962e-05,7.77e-06,0.0,0 STARLINK-5328,1 55657U 23021AF  24181.24601585  .00000777  00000-0  72962-4 0  9994,2 55657  69.9996 283.9320 0003767 273.5555  86.5173 14.98323616 76343,6950.213,96.107,574.696,569.459,0.0
55657.0,STARLINK-5328,PAYLOAD,2024-06-29 13:54:55,14.98332735,0.00033,70.0004,283.0904,273.1817,86.8964,0.00018123,2.07e-05,0.0,0 STARLINK-5328,1 55657U 23021AF  24181.57981139  .00002070  00000-0  18123-3 0  9992,2 55657  70.0004 283.0904 0003300 273.1817  86.8964 14.98332735 76393,6950.184,96.107,574.343,569.756,0.0
55657.0,STARLINK-5328,PAYLOAD,2024-06-29 17:07:11,14.98338047,0.0003216,70.0008,282.7537,272.2185,87.8605,0.00026548,3.077e-05,0.0,0 STARLINK-5328,1 55657U 23021AF  24181.71332904  .00003077  00000-0  26548-3 0  9996,2 55657  70.0008 282.7537 0003216 272.2185  87.8605 14.98338047 76710,6950.168,96.106,574.268,569.798,0.0
55657.0,STARLINK-5328,PAYLOAD,2024-06-30 10:44:40,14.98328609,0.000306,70.0006,280.9025,270.3908,89.6901,-5.438e-05,-7.42e-06,0.0,0 STARLINK-5328,1 55657U 23021AF  24182.44769368 -.00000742  00000-0 -54380-4 0  9999,2 55657  70.0006 280.9025 0003060 270.3908  89.6901 14.98328609 76520,6950.197,96.107,574.189,569.935,0.0
55657.0,STARLINK-5328,PAYLOAD,2024-06-30 13:56:56,14.98329584,0.0003052,70.0005,280.5661,268.772,91.309,-7.8861e-05,-1.034e-05,0.0,0 STARLINK-5328,1 55657U 23021AF  24182.58121302 -.00001034  00000-0 -78861-4 0  9999,2 55657  70.0005 280.5661 0003052 268.7720  91.3090 14.98329584 76842,6950.194,96.107,574.18,569.938,0.0
55657.0,STARLINK-5328,PAYLOAD,2024-06-30 17:09:12,14.98333299,0.0003028,70.0006,280.2296,268.1305,91.9507,2.6882e-06,-6.1e-07,0.0,0 STARLINK-5328,1 55657U 23021AF  24182.71473087 -.00000061  00000-0  26882-5 0  9999,2 55657  70.0006 280.2296 0003028 268.1305  91.9507 14.98333299 76869,6950.183,96.107,574.152,569.943,0.0
55657.0,STARLINK-5328,PAYLOAD,2024-07-01 12:22:49,14.98324551,0.0002984,69.9996,278.2099,266.8312,93.2506,0.00023635,2.728e-05,0.0,0 STARLINK-5328,1 55657U 23021AF  24183.51585453  .00002728  00000-0  23635-3 0  9991,2 55657  69.9996 278.2099 0002984 266.8312  93.2506 14.98324551 76680,6950.21,96.107,574.149,570.001,0.0
55657.0,STARLINK-5328,PAYLOAD,2024-07-01 13:58:57,14.98329861,0.0002962,69.9998,278.0416,266.476,93.606,0.00015603,1.769e-05,0.0,0 STARLINK-5328,1 55657U 23021AF  24183.58261265  .00001769  00000-0  15603-3 0  9990,2 55657  69.9998 278.0416 0002962 266.4760  93.6060 14.98329861 76994,6950.193,96.107,574.117,570.0,0.0
55657.0,STARLINK-5328,PAYLOAD,2024-07-01 17:11:13,14.98333038,0.0002946,69.9998,277.7047,265.8729,94.2093,0.00018635,2.131e-05,0.0,0 STARLINK-5328,1 55657U 23021AF  24183.71613024  .00002131  00000-0  18635-3 0  9991,2 55657  69.9998 277.7047 0002946 265.8729  94.2093 14.98333038 77018,6950.183,96.107,574.096,570.001,0.0
55657.0,STARLINK-5328,PAYLOAD,2024-07-02 12:24:51,14.98323269,0.0003047,69.9996,275.6848,266.84,93.2411,6.1827e-05,6.45e-06,0.0,0 STARLINK-5328,1 55657U 23021AF  24184.51725914  .00000645  00000-0  61827-4 0  9992,2 55657  69.9996 275.6848 0003047 266.8400  93.2411 14.98323269 76839,6950.214,96.107,574.196,569.961,0.0
55657.0,STARLINK-5328,PAYLOAD,2024-07-02 14:00:59,14.98326155,0.0003021,69.9996,275.5165,266.3405,93.7409,8.2996e-05,8.97e-06,0.0,0 STARLINK-5328,1 55657U 23021AF  24184.58401667  .00000897  00000-0  82996-4 0  9994,2 55657  69.9996 275.5165 0003021 266.3405  93.7409 14.98326155 77146,6950.205,96.107,574.169,569.97,0.0
55657.0,STARLINK-5328,PAYLOAD,2024-07-02 15:37:07,14.98327262,0.0003013,69.9997,275.3482,266.3755,93.7059,9.2593e-05,1.012e-05,0.0,0 STARLINK-5328,1 55657U 23021AF  24184.65077572  .00001012  00000-0  92593-4 0  9990,2 55657  69.9997 275.3482 0003013 266.3755  93.7059 14.98327262 77158,6950.201,96.107,574.16,569.972,0.0
